CTC2_L_00258016-03
1 10062U 23635O   26075.70043981  .00000000  00000+0  00000-0 0  9999
2 10062  85.0000 180.0000 0000000   0.0000   0.0000 14.06899812    12
CTC2_L_00258016-04
1 10063U 23540CD  26075.70043981  .00000000  00000+0  00000-0 0  9995
2 10063  85.0000 180.0000 0000000   0.0000  90.0000 14.06899812    12
CTC2_L_00258017-01
1 10064U 22660CD  26075.70043981  .00000000  00000+0  00000-0 0  9998
2 10064  85.0000 192.0000 0000000   0.0000 192.0000 14.06899812    19
CTC2_L_00258017-02
1 10065U 26660CS  26075.70043981  .00000000  00000+0  00000-0 0  9993
2 10065  85.0000 192.0000 0000000   0.0000 282.0000 14.06899812    10
CTC2_L_00258017-03
1 10066U 26880ZZ  26075.70043981  .00000000  00000+0  00000-0 0  9998
2 10066  85.0000 192.0000 0000000   0.0000  12.0000 14.06899812    12
CTC2_L_00258017-04
1 10067U 25908XU  26075.70043981  .00000000  00000+0  00000-0 0  9999
2 10067  85.0000 192.0000 0000000   0.0000 102.0000 14.06899812    13
CTC2_L_00258018-01
1 10068U 24806YB  26075.70043981  .00000000  00000+0  00000-0 0  9996
2 10068  85.0000 204.0000 0000000   0.0000 204.0000 14.06899812    11
CTC2_L_00258018-02
1 10069U 26372KD  26075.70043981  .00000000  00000+0  00000-0 0  9997
2 10069  85.0000 204.0000 0000000   0.0000 294.0000 14.06899812    11
CTC2_L_00258018-03
1 10070U 23844QQ  26075.70043981  .00000000  00000+0  00000-0 0  9990
2 10070  85.0000 204.0000 0000000   0.0000  24.0000 14.06899812    14
CTC2_L_00258018-04
1 10071U 23164EP  26075.70043981  .00000000  00000+0  00000-0 0  9996
2 10071  85.0000 204.0000 0000000   0.0000 114.0000 14.06899812    15
CTC2_L_00258019-01
1 10072U 26441YB  26075.70043981  .00000000  00000+0  00000-0 0  9998
2 10072  85.0000 216.0000 0000000   0.0000 216.0000 14.06899812    12
CTC2_L_00258019-02
1 10073U 24513BX  26075.70043981  .00000000  00000+0  00000-0 0  9997
2 10073  85.0000 216.0000 0000000   0.0000 306.0000 14.06899812    13
CTC2_L_00258019-03
1 10074U 26893YN  26075.70043981  .00000000  00000+0  00000-0 0  9991
2 10074  85.0000 216.0000 0000000   0.0000  36.0000 14.06899812    14
CTC2_L_00258019-04
1 10075U 24709WS  26075.70043981  .00000000  00000+0  00000-0 0  9996
2 10075  85.0000 216.0000 0000000   0.0000 126.0000 14.06899812    15
CTC2_L_00258020-01
1 10076U 26196PY  26075.70043981  .00000000  00000+0  00000-0 0  9999
2 10076  85.0000 228.0000 0000000   0.0000 228.0000 14.06899812    12
CTC2_L_00258020-02
1 10077U 23322RN  26075.70043981  .00000000  00000+0  00000-0 0  9998
2 10077  85.0000 228.0000 0000000   0.0000 318.0000 14.06899812    13
CTC2_L_00258020-03
1 10078U 26586VT  26075.70043981  .00000000  00000+0  00000-0 0  9994
2 10078  85.0000 228.0000 0000000   0.0000  48.0000 14.06899812    14
CTC2_L_00258020-04
1 10079U 23206ZL  26075.70043981  .00000000  00000+0  00000-0 0  9991
2 10079  85.0000 228.0000 0000000   0.0000 138.0000 14.06899812    15
CTC2_L_00258021-01
1 10080U 23603PC  26075.70043981  .00000000  00000+0  00000-0 0  9994
2 10080  85.0000 240.0000 0000000   0.0000 240.0000 14.06899812    15
CTC2_L_00258021-02
1 10081U 24166MG  26075.70043981  .00000000  00000+0  00000-0 0  9990
2 10081  85.0000 240.0000 0000000   0.0000 330.0000 14.06899812    16
CTC2_L_00258021-03
1 10082U 24003VO  26075.70043981  .00000000  00000+0  00000-0 0  9991
2 10082  85.0000 240.0000 0000000   0.0000  60.0000 14.06899812    17
CTC2_L_00258021-04
1 10083U 22575HU  26075.70043981  .00000000  00000+0  00000-0 0  9994
2 10083  85.0000 240.0000 0000000   0.0000 150.0000 14.06899812    18
CTC2_L_00258022-01
1 10084U 24642QV  26075.70043981  .00000000  00000+0  00000-0 0  9992
2 10084  85.0000 252.0000 0000000   0.0000 252.0000 14.06899812    15
CTC2_L_00258022-02
1 10085U 26638BD  26075.70043981  .00000000  00000+0  00000-0 0  9990
2 10085  85.0000 252.0000 0000000   0.0000 342.0000 14.06899812    16
CTC2_L_00258022-03
1 10086U 25238CT  26075.70043981  .00000000  00000+0  00000-0 0  9996
2 10086  85.0000 252.0000 0000000   0.0000  72.0000 14.06899812    17
CTC2_L_00258022-04
1 10087U 25170EP  26075.70043981  .00000000  00000+0  00000-0 0  9992
2 10087  85.0000 252.0000 0000000   0.0000 162.0000 14.06899812    18
CTC2_L_00258023-01
1 10088U 23815YN  26075.70043981  .00000000  00000+0  00000-0 0  9997
2 10088  85.0000 264.0000 0000000   0.0000 264.0000 14.06899812    15
CTC2_L_00258023-02
1 10089U 23075OJ  26075.70043981  .00000000  00000+0  00000-0 0  9996
2 10089  85.0000 264.0000 0000000   0.0000 354.0000 14.06899812    16
CTC2_L_00258023-03
1 10090U 23843XP  26075.70043981  .00000000  00000+0  00000-0 0  9991
2 10090  85.0000 264.0000 0000000   0.0000  84.0000 14.06899812    18
CTC2_L_00258023-04
1 10091U 23220OQ  26075.70043981  .00000000  00000+0  00000-0 0  9991
2 10091  85.0000 264.0000 0000000   0.0000 174.0000 14.06899812    19
CTC2_L_00258024-01
1 10092U 24115XP  26075.70043981  .00000000  00000+0  00000-0 0  9996
2 10092  85.0000 276.0000 0000000   0.0000 276.0000 14.06899812    16
CTC2_L_00258024-02
1 10093U 23607FE  26075.70043981  .00000000  00000+0  00000-0 0  9992
2 10093  85.0000 276.0000 0000000   0.0000   6.0000 14.06899812    18
CTC2_L_00258024-03
1 10094U 26791VP  26075.70043981  .00000000  00000+0  00000-0 0  9990
2 10094  85.0000 276.0000 0000000   0.0000  96.0000 14.06899812    18
CTC2_L_00258024-04
1 10095U 23392CE  26075.70043981  .00000000  00000+0  00000-0 0  9995
2 10095  85.0000 276.0000 0000000   0.0000 186.0000 14.06899812    19
CTC2_L_00258025-01
1 10096U 26076RR  26075.70043981  .00000000  00000+0  00000-0 0  9998
2 10096  85.0000 288.0000 0000000   0.0000 288.0000 14.06899812    16
CTC2_L_00258025-02
1 10097U 22155R   26075.70043981  .00000000  00000+0  00000-0 0  9993
2 10097  85.0000 288.0000 0000000   0.0000  18.0000 14.06899812    18
CTC2_L_00258025-03
1 10098U 26911TX  26075.70043981  .00000000  00000+0  00000-0 0  9998
2 10098  85.0000 288.0000 0000000   0.0000 108.0000 14.06899812    19
CTC2_L_00258025-04
1 10099U 22570QJ  26075.70043981  .00000000  00000+0  00000-0 0  9996
2 10099  85.0000 288.0000 0000000   0.0000 198.0000 14.06899812    19
CTC2_L_00258026-01
1 10100U 26107PO  26075.70043981  .00000000  00000+0  00000-0 0  9999
2 10100  85.0000 300.0000 0000000   0.0000 300.0000 14.06899812    12
CTC2_L_00258026-02
1 10101U 25384OX  26075.70043981  .00000000  00000+0  00000-0 0  9996
2 10101  85.0000 300.0000 0000000   0.0000  30.0000 14.06899812    13
CTC2_L_00258026-03
1 10102U 23724XF  26075.70043981  .00000000  00000+0  00000-0 0  9993
2 10102  85.0000 300.0000 0000000   0.0000 120.0000 14.06899812    14
CTC2_L_00258026-04
1 10103U 26287RI  26075.70043981  .00000000  00000+0  00000-0 0  9991
2 10103  85.0000 300.0000 0000000   0.0000 210.0000 14.06899812    15
CTC2_L_00258027-01
1 10104U 24774MF  26075.70043981  .00000000  00000+0  00000-0 0  9991
2 10104  85.0000 312.0000 0000000   0.0000 312.0000 14.06899812    12
CTC2_L_00258027-02
1 10105U 22324KC  26075.70043981  .00000000  00000+0  00000-0 0  9991
2 10105  85.0000 312.0000 0000000   0.0000  42.0000 14.06899812    13
CTC2_L_00258027-03
1 10106U 25473EA  26075.70043981  .00000000  00000+0  00000-0 0  9990
2 10106  85.0000 312.0000 0000000   0.0000 132.0000 14.06899812    14
CTC2_L_00258027-04
1 10107U 26446OP  26075.70043981  .00000000  00000+0  00000-0 0  9992
2 10107  85.0000 312.0000 0000000   0.0000 222.0000 14.06899812    15
CTC2_L_00258028-01
1 10108U 23277HR  26075.70043981  .00000000  00000+0  00000-0 0  9992
2 10108  85.0000 324.0000 0000000   0.0000 324.0000 14.06899812    12
CTC2_L_00258028-02
1 10109U 26285QI  26075.70043981  .00000000  00000+0  00000-0 0  9995
2 10109  85.0000 324.0000 0000000   0.0000  54.0000 14.06899812    13
CTC2_L_00258028-03
1 10110U 26274EM  26075.70043981  .00000000  00000+0  00000-0 0  9995
2 10110  85.0000 324.0000 0000000   0.0000 144.0000 14.06899812    15
CTC2_L_00258028-04
1 10111U 23500OZ  26075.70043981  .00000000  00000+0  00000-0 0  9995
2 10111  85.0000 324.0000 0000000   0.0000 234.0000 14.06899812    16
CTC2_L_00258029-01
1 10112U 22639TC  26075.70043981  .00000000  00000+0  00000-0 0  9998
2 10112  85.0000 336.0000 0000000   0.0000 336.0000 14.06899812    13
CTC2_L_00258029-02
1 10113U 23057CR  26075.70043981  .00000000  00000+0  00000-0 0  9994
2 10113  85.0000 336.0000 0000000   0.0000  66.0000 14.06899812    14
CTC2_L_00258029-03
1 10114U 26726XB  26075.70043981  .00000000  00000+0  00000-0 0  9991
2 10114  85.0000 336.0000 0000000   0.0000 156.0000 14.06899812    15
CTC2_L_00258029-04
1 10115U 23765YP  26075.70043981  .00000000  00000+0  00000-0 0  9992
2 10115  85.0000 336.0000 0000000   0.0000 246.0000 14.06899812    16
CTC2_L_00258030-01
1 10116U 23560TL  26075.70043981  .00000000  00000+0  00000-0 0  9996
2 10116  85.0000 348.0000 0000000   0.0000 348.0000 14.06899812    13
CTC2_L_00258030-02
1 10117U 23071CA  26075.70043981  .00000000  00000+0  00000-0 0  9994
2 10117  85.0000 348.0000 0000000   0.0000  78.0000 14.06899812    14
CTC2_L_00258030-03
1 10118U 23617B   26075.70043981  .00000000  00000+0  00000-0 0  9991
2 10118  85.0000 348.0000 0000000   0.0000 168.0000 14.06899812    15
CTC2_L_00258030-04
1 10119U 26752HO  26075.70043981  .00000000  00000+0  00000-0 0  9995
2 10119  85.0000 348.0000 0000000   0.0000 258.0000 14.06899812    16
